[{"OBJECT_NAME":"STARLINK-31823","OBJECT_ID":"2024-093N","EPOCH":"2026-03-08T16:39:02.279232","MEAN_MOTION":15.27589278,"ECCENTRICITY":0.0002017,"INCLINATION":42.9987,"RA_OF_ASC_NODE":214.4702,"ARG_OF_PERICENTER":273.8979,"MEAN_ANOMALY":86.1642,"EPHEMERIS_TYPE":0,"CLASSIFICATION_TYPE":"U","NORAD_CAT_ID":59794,"ELEMENT_SET_NO":999,"REV_AT_EPOCH":10254,"BSTAR":2.0372724e-5,"MEAN_MOTION_DOT":2.98e-6,"MEAN_MOTION_DDOT":0},{"OBJECT_NAME":"CZ-6A DEB","OBJECT_ID":"2023-168D","EPOCH":"2026-03-09T19:03:52.964928","MEAN_MOTION":15.28240044,"ECCENTRICITY":0.00013417,"INCLINATION":97.7802,"RA_OF_ASC_NODE":98.3362,"ARG_OF_PERICENTER":174.0661,"MEAN_ANOMALY":186.0594,"EPHEMERIS_TYPE":0,"CLASSIFICATION_TYPE":"U","NORAD_CAT_ID":58202,"ELEMENT_SET_NO":999,"REV_AT_EPOCH":12922,"BSTAR":0.0014474773,"MEAN_MOTION_DOT":0.00039923,"MEAN_MOTION_DDOT":0}]
